{"type": "FeatureCollection", "features": [ {"type": "Feature", "properties": {"norad_id": 41836, "name": "HIMAWARI-9", "group": "weather", "lat": -0.03788163278493345, "lon": -66.3264332981014, "alt_km": 35780.873981398145, "timestamp": "2025-12-25T03:55:55.948755+00:00", "meta": {"OBJECT_NAME": "HIMAWARI-9", "OBJECT_ID": "2016-064A", "EPOCH": "2025-12-23T22:52:38.784288", "MEAN_MOTION": 1.00271828, "ECCENTRICITY": 0.00016373, "INCLINATION": 0.0175, "RA_OF_ASC_NODE": 40.3208, "ARG_OF_PERICENTER": 292.8784, "MEAN_ANOMALY": 243.4785, "EPHEMERIS_TYPE": 0, "CLASSIFICATION_TYPE": "U", "NORAD_CAT_ID": 41836, "ELEMENT_SET_NO": 999, "REV_AT_EPOCH": 3345, "BSTAR": 0, "MEAN_MOTION_DOT": 0, "MEAN_MOTION_DDOT": 0}, "tle": {"line1": "1 41836U 16064A   25357.95322667  .00000000  00000+0  00000+0 0  9999", "line2": "2 41836   0.0175  40.3208 0001637 292.8784 243.4785  1.00271828 33458"}}, "geometry": {"type": "Point", "coordinates": [-66.3264332981014, -0.03788163278493345]}}, {"type": "Feature", "properties": {"norad_id": 41866, "name": "GOES 16", "group": "weather", "lat": -0.04792713277055682, "lon": 48.26418583678271, "alt_km": 35796.527569208425, "timestamp": "2025-12-25T03:55:55.948768+00:00", "meta": {"OBJECT_NAME": "GOES 16", "OBJECT_ID": "2016-071A", "EPOCH": "2025-12-24T04:56:56.433408", "MEAN_MOTION": 1.00271814, "ECCENTRICITY": 0.00031453, "INCLINATION": 0.0748, "RA_OF_ASC_NODE": 102.0172, "ARG_OF_PERICENTER": 164.4838, "MEAN_ANOMALY": 156.055, "EPHEMERIS_TYPE": 0, "CLASSIFICATION_TYPE": "U", "NORAD_CAT_ID": 41866, "ELEMENT_SET_NO": 999, "REV_AT_EPOCH": 3334, "BSTAR": 0, "MEAN_MOTION_DOT": -7e-07, "MEAN_MOTION_DDOT": 0}, "tle": {"line1": "1 41866U 16071A   25358.20620872 -.00000070  00000+0  00000+0 0  9996", "line2": "2 41866   0.0748 102.0172 0003145 164.4838 156.0550  1.00271814 33345"}}, "geometry": {"type": "Point", "coordinates": [48.26418583678271, -0.04792713277055682]}}, {"type": "Feature", "properties": {"norad_id": 41882, "name": "FENGYUN 4A", "group": "weather", "lat": -0.4839338159503821, "lon": -83.45098129871523, "alt_km": 35776.61408276563, "timestamp": "2025-12-25T03:55:55.948780+00:00", "meta": {"OBJECT_NAME": "FENGYUN 4A", "OBJECT_ID": "2016-077A", "EPOCH": "2025-12-24T20:32:05.847072", "MEAN_MOTION": 1.00263369, "ECCENTRICITY": 0.0004492, "INCLINATION": 1.8778, "RA_OF_ASC_NODE": 82.2736, "ARG_OF_PERICENTER": 143.1291, "MEAN_ANOMALY": 299.8651, "EPHEMERIS_TYPE": 0, "CLASSIFICATION_TYPE": "U", "NORAD_CAT_ID": 41882, "ELEMENT_SET_NO": 999, "REV_AT_EPOCH": 3318, "BSTAR": 0, "MEAN_MOTION_DOT": -3.37e-06, "MEAN_MOTION_DDOT": 0}, "tle": {"line1": "1 41882U 16077A   25358.85562323 -.00000337  00000+0  00000+0 0  9993", "line2": "2 41882   1.8778  82.2736 0004492 143.1291 299.8651  1.00263369 33189"}}, "geometry": {"type": "Point", "coordinates": [-83.45098129871523, -0.4839338159503821]}}, {"type": "Feature", "properties": {"norad_id": 41884, "name": "CYGFM05", "group": "weather", "lat": -25.961235857073643, "lon": -169.87534787608718, "alt_km": 420.30634780470064, "timestamp": "2025-12-25T03:55:55.948792+00:00", "meta": {"OBJECT_NAME": "CYGFM05", "OBJECT_ID": "2016-078A", "EPOCH": "2025-12-24T14:33:43.494624", "MEAN_MOTION": 15.48073343, "ECCENTRICITY": 0.001063, "INCLINATION": 34.9606, "RA_OF_ASC_NODE": 329.5892, "ARG_OF_PERICENTER": 285.346, "MEAN_ANOMALY": 74.6087, "EPHEMERIS_TYPE": 0, "CLASSIFICATION_TYPE": "U", "NORAD_CAT_ID": 41884, "ELEMENT_SET_NO": 999, "REV_AT_EPOCH": 50160, "BSTAR": 0.00039127, "MEAN_MOTION_DOT": 0.00021189, "MEAN_MOTION_DDOT": 0}, "tle": {"line1": "1 41884U 16078A   25358.60675341  .00021189  00000+0  39127-3 0  9997", "line2": "2 41884  34.9606 329.5892 0010630 285.3460  74.6087 15.48073343501603"}}, "geometry": {"type": "Point", "coordinates": [-169.87534787608718, -25.961235857073643]}}, {"type": "Feature", "properties": {"norad_id": 41885, "name": "CYGFM04", "group": "weather", "lat": -27.198862344125917, "lon": 167.77300158307764, "alt_km": 414.97080583460865, "timestamp": "2025-12-25T03:55:55.948803+00:00", "meta": {"OBJECT_NAME": "CYGFM04", "OBJECT_ID": "2016-078B", "EPOCH": "2025-12-24T03:45:30.157056", "MEAN_MOTION": 15.5083976, "ECCENTRICITY": 0.00092946, "INCLINATION": 34.9353, "RA_OF_ASC_NODE": 306.9755, "ARG_OF_PERICENTER": 306.3575, "MEAN_ANOMALY": 53.6289, "EPHEMERIS_TYPE": 0, "CLASSIFICATION_TYPE": "U", "NORAD_CAT_ID": 41885, "ELEMENT_SET_NO": 999, "REV_AT_EPOCH": 50171, "BSTAR": 0.00041478685, "MEAN_MOTION_DOT": 0.00024779, "MEAN_MOTION_DDOT": 0}, "tle": {"line1": "1 41885U 16078B   25358.15659904  .00024779  00000+0  41479-3 0  9996", "line2": "2 41885  34.9353 306.9755 0009294 306.3575  53.6289 15.50839760501714"}}, "geometry": {"type": "Point", "coordinates": [167.77300158307764, -27.198862344125917]}}, {"type": "Feature", "properties": {"norad_id": 41886, "name": "CYGFM02", "group": "weather", "lat": -26.514278729120136, "lon": -107.07664628793123, "alt_km": 404.3269454386227, "timestamp": "2025-12-25T03:55:55.948814+00:00", "meta": {"OBJECT_NAME": "CYGFM02", "OBJECT_ID": "2016-078C", "EPOCH": "2025-12-24T20:26:02.887584", "MEAN_MOTION": 15.52287932, "ECCENTRICITY": 0.001079, "INCLINATION": 34.9438, "RA_OF_ASC_NODE": 300.5806, "ARG_OF_PERICENTER": 313.4948, "MEAN_ANOMALY": 46.4878, "EPHEMERIS_TYPE": 0, "CLASSIFICATION_TYPE": "U", "NORAD_CAT_ID": 41886, "ELEMENT_SET_NO": 999, "REV_AT_EPOCH": 50195, "BSTAR": 0.00039992, "MEAN_MOTION_DOT": 0.00025184, "MEAN_MOTION_DDOT": 0}, "tle": {"line1": "1 41886U 16078C   25358.85142231  .00025184  00000+0  39992-3 0  9992", "line2": "2 41886  34.9438 300.5806 0010790 313.4948  46.4878 15.52287932501952"}}, "geometry": {"type": "Point", "coordinates": [-107.07664628793123, -26.514278729120136]}}, {"type": "Feature", "properties": {"norad_id": 41887, "name": "CYGFM01", "group": "weather", "lat": -29.557940626292275, "lon": -86.10183198065879, "alt_km": 415.58306249918405, "timestamp": "2025-12-25T03:55:55.948824+00:00", "meta": {"OBJECT_NAME": "CYGFM01", "OBJECT_ID": "2016-078D", "EPOCH": "2025-12-24T06:31:41.746080", "MEAN_MOTION": 15.48651052, "ECCENTRICITY": 0.00104085, "INCLINATION": 34.9436, "RA_OF_ASC_NODE": 334.0447, "ARG_OF_PERICENTER": 275.2665, "MEAN_ANOMALY": 84.6869, "EPHEMERIS_TYPE": 0, "CLASSIFICATION_TYPE": "U", "NORAD_CAT_ID": 41887, "ELEMENT_SET_NO": 999, "REV_AT_EPOCH": 50149, "BSTAR": 0.00040597241, "MEAN_MOTION_DOT": 0.00022441, "MEAN_MOTION_DDOT": 0}, "tle": {"line1": "1 41887U 16078D   25358.27201095  .00022441  00000+0  40597-3 0  9999", "line2": "2 41887  34.9436 334.0447 0010408 275.2665  84.6869 15.48651052501497"}}, "geometry": {"type": "Point", "coordinates": [-86.10183198065879, -29.557940626292275]}}, {"type": "Feature", "properties": {"norad_id": 41888, "name": "CYGFM08", "group": "weather", "lat": 23.355345186172187, "lon": -10.749183051770377, "alt_km": 413.2960214944651, "timestamp": "2025-12-25T03:55:55.948835+00:00", "meta": {"OBJECT_NAME": "CYGFM08", "OBJECT_ID": "2016-078E", "EPOCH": "2025-12-24T06:06:07.479072", "MEAN_MOTION": 15.49887318, "ECCENTRICITY": 0.001161, "INCLINATION": 34.9466, "RA_OF_ASC_NODE": 317.0171, "ARG_OF_PERICENTER": 298.3091, "MEAN_ANOMALY": 61.646, "EPHEMERIS_TYPE": 0, "CLASSIFICATION_TYPE": "U", "NORAD_CAT_ID": 41888, "ELEMENT_SET_NO": 999, "REV_AT_EPOCH": 50172, "BSTAR": 0.00040991288, "MEAN_MOTION_DOT": 0.00023689, "MEAN_MOTION_DDOT": 0}, "tle": {"line1": "1 41888U 16078E   25358.25425323  .00023689  00000+0  40991-3 0  9993", "line2": "2 41888  34.9466 317.0171 0011610 298.3091  61.6460 15.49887318501726"}}, "geometry": {"type": "Point", "coordinates": [-10.749183051770377, 23.355345186172187]}}, {"type": "Feature", "properties": {"norad_id": 41890, "name": "CYGFM07", "group": "weather", "lat": 29.027974380790045, "lon": -7.413391699856786, "alt_km": 410.422699231367, "timestamp": "2025-12-25T03:55:55.948846+00:00", "meta": {"OBJECT_NAME": "CYGFM07", "OBJECT_ID": "2016-078G", "EPOCH": "2025-12-24T04:30:16.863552", "MEAN_MOTION": 15.50478038, "ECCENTRICITY": 0.00095557, "INCLINATION": 34.948, "RA_OF_ASC_NODE": 306.3693, "ARG_OF_PERICENTER": 312.2172, "MEAN_ANOMALY": 47.7739, "EPHEMERIS_TYPE": 0, "CLASSIFICATION_TYPE": "U", "NORAD_CAT_ID": 41890, "ELEMENT_SET_NO": 999, "REV_AT_EPOCH": 50173, "BSTAR": 0.00041713865, "MEAN_MOTION_DOT": 0.00024601, "MEAN_MOTION_DDOT": 0}, "tle": {"line1": "1 41890U 16078G   25358.18769518  .00024601  00000+0  41714-3 0  9994", "line2": "2 41890  34.9480 306.3693 0009555 312.2172  47.7739 15.50478038501738"}}, "geometry": {"type": "Point", "coordinates": [-7.413391699856786, 29.027974380790045]}}, {"type": "Feature", "properties": {"norad_id": 41891, "name": "CYGFM03", "group": "weather", "lat": -32.03522909060174, "lon": -174.45293538831916, "alt_km": 414.360719711457, "timestamp": "2025-12-25T03:55:55.948857+00:00", "meta": {"OBJECT_NAME": "CYGFM03", "OBJECT_ID": "2016-078H", "EPOCH": "2025-12-24T05:13:56.561664", "MEAN_MOTION": 15.50374029, "ECCENTRICITY": 0.00093426, "INCLINATION": 34.9436, "RA_OF_ASC_NODE": 308.0966, "ARG_OF_PERICENTER": 299.8769, "MEAN_ANOMALY": 60.1025, "EPHEMERIS_TYPE": 0, "CLASSIFICATION_TYPE": "U", "NORAD_CAT_ID": 41891, "ELEMENT_SET_NO": 999, "REV_AT_EPOCH": 50171, "BSTAR": 0.00040581852, "MEAN_MOTION_DOT": 0.00023839, "MEAN_MOTION_DDOT": 0}, "tle": {"line1": "1 41891U 16078H   25358.21801576  .00023839  00000+0  40582-3 0  9994", "line2": "2 41891  34.9436 308.0966 0009342 299.8769  60.1025 15.50374029501718"}}, "geometry": {"type": "Point", "coordinates": [-174.45293538831916, -32.03522909060174]}}]}